{"type": "FeatureCollection", "features": [ {"type": "Feature", "properties": {"norad_id": 66767, "name": "TRANSPORTER-15DF", "group": "last-30-days", "lat": -37.59512881167327, "lon": -114.91246740520863, "alt_km": 518.2443176751422, "timestamp": "2025-12-25T07:00:32.763879+00:00", "meta": {"OBJECT_NAME": "TRANSPORTER-15DF", "OBJECT_ID": "2025-276DF", "EPOCH": "2025-12-24T22:08:39.363648", "MEAN_MOTION": 15.1834776, "ECCENTRICITY": 0.00021141, "INCLINATION": 97.4365, "RA_OF_ASC_NODE": 70.4964, "ARG_OF_PERICENTER": 87.8658, "MEAN_ANOMALY": 272.2818, "EPHEMERIS_TYPE": 0, "CLASSIFICATION_TYPE": "U", "NORAD_CAT_ID": 66767, "ELEMENT_SET_NO": 999, "REV_AT_EPOCH": 397, "BSTAR": 0.00034335207, "MEAN_MOTION_DOT": 6.986e-05, "MEAN_MOTION_DDOT": 0}, "tle": {"line1": "1 66767U 25276DF  25358.92267782  .00006986  00000+0  34335-3 0  9999", "line2": "2 66767  97.4365  70.4964 0002114  87.8658 272.2818 15.18347760  3979"}}, "geometry": {"type": "Point", "coordinates": [-114.91246740520863, -37.59512881167327]}}, {"type": "Feature", "properties": {"norad_id": 66768, "name": "TRANSPORTER-15DG", "group": "last-30-days", "lat": -50.62123201207966, "lon": -118.29381857672215, "alt_km": 518.5640107854024, "timestamp": "2025-12-25T07:00:32.763889+00:00", "meta": {"OBJECT_NAME": "TRANSPORTER-15DG", "OBJECT_ID": "2025-276DG", "EPOCH": "2025-12-24T22:05:13.715232", "MEAN_MOTION": 15.18550934, "ECCENTRICITY": 0.00022208, "INCLINATION": 97.4352, "RA_OF_ASC_NODE": 70.4957, "ARG_OF_PERICENTER": 76.3438, "MEAN_ANOMALY": 283.8043, "EPHEMERIS_TYPE": 0, "CLASSIFICATION_TYPE": "U", "NORAD_CAT_ID": 66768, "ELEMENT_SET_NO": 999, "REV_AT_EPOCH": 397, "BSTAR": 0.00042206938, "MEAN_MOTION_DOT": 8.655e-05, "MEAN_MOTION_DDOT": 0}, "tle": {"line1": "1 66768U 25276DG  25358.92029763  .00008655  00000+0  42207-3 0  9997", "line2": "2 66768  97.4352  70.4957 0002220  76.3438 283.8043 15.18550934  3972"}}, "geometry": {"type": "Point", "coordinates": [-118.29381857672215, -50.62123201207966]}}, {"type": "Feature", "properties": {"norad_id": 66769, "name": "TRANSPORTER-15DH", "group": "last-30-days", "lat": -44.85227908498224, "lon": -116.59300914563178, "alt_km": 518.3856645383539, "timestamp": "2025-12-25T07:00:32.763900+00:00", "meta": {"OBJECT_NAME": "TRANSPORTER-15DH", "OBJECT_ID": "2025-276DH", "EPOCH": "2025-12-24T20:31:50.819520", "MEAN_MOTION": 15.18426238, "ECCENTRICITY": 0.00027351, "INCLINATION": 97.4414, "RA_OF_ASC_NODE": 70.4488, "ARG_OF_PERICENTER": 103.7158, "MEAN_ANOMALY": 256.438, "EPHEMERIS_TYPE": 0, "CLASSIFICATION_TYPE": "U", "NORAD_CAT_ID": 66769, "ELEMENT_SET_NO": 999, "REV_AT_EPOCH": 396, "BSTAR": 0.00029907515, "MEAN_MOTION_DOT": 6.09e-05, "MEAN_MOTION_DDOT": 0}, "tle": {"line1": "1 66769U 25276DH  25358.85544930  .00006090  00000+0  29908-3 0  9992", "line2": "2 66769  97.4414  70.4488 0002735 103.7158 256.4380 15.18426238  3964"}}, "geometry": {"type": "Point", "coordinates": [-116.59300914563178, -44.85227908498224]}}, {"type": "Feature", "properties": {"norad_id": 66770, "name": "TRANSPORTER-15DJ", "group": "last-30-days", "lat": -46.48785428916201, "lon": -117.02668281061419, "alt_km": 518.2643066680657, "timestamp": "2025-12-25T07:00:32.763910+00:00", "meta": {"OBJECT_NAME": "TRANSPORTER-15DJ", "OBJECT_ID": "2025-276DJ", "EPOCH": "2025-12-24T20:31:24.174624", "MEAN_MOTION": 15.18403901, "ECCENTRICITY": 0.0003391, "INCLINATION": 97.4444, "RA_OF_ASC_NODE": 70.4598, "ARG_OF_PERICENTER": 118.5223, "MEAN_ANOMALY": 241.6353, "EPHEMERIS_TYPE": 0, "CLASSIFICATION_TYPE": "U", "NORAD_CAT_ID": 66770, "ELEMENT_SET_NO": 999, "REV_AT_EPOCH": 396, "BSTAR": 0.00056072132, "MEAN_MOTION_DOT": 0.00011477, "MEAN_MOTION_DDOT": 0}, "tle": {"line1": "1 66770U 25276DJ  25358.85514091  .00011477  00000+0  56072-3 0  9996", "line2": "2 66770  97.4444  70.4598 0003391 118.5223 241.6353 15.18403901  3965"}}, "geometry": {"type": "Point", "coordinates": [-117.02668281061419, -46.48785428916201]}}, {"type": "Feature", "properties": {"norad_id": 66771, "name": "TRANSPORTER-15DK", "group": "last-30-days", "lat": -49.48052261843225, "lon": -117.9110793855451, "alt_km": 518.3764902700868, "timestamp": "2025-12-25T07:00:32.763920+00:00", "meta": {"OBJECT_NAME": "TRANSPORTER-15DK", "OBJECT_ID": "2025-276DK", "EPOCH": "2025-12-24T20:30:38.024064", "MEAN_MOTION": 15.18495922, "ECCENTRICITY": 0.00030998, "INCLINATION": 97.4438, "RA_OF_ASC_NODE": 70.4579, "ARG_OF_PERICENTER": 110.844, "MEAN_ANOMALY": 249.3127, "EPHEMERIS_TYPE": 0, "CLASSIFICATION_TYPE": "U", "NORAD_CAT_ID": 66771, "ELEMENT_SET_NO": 999, "REV_AT_EPOCH": 396, "BSTAR": 0.00053604536, "MEAN_MOTION_DOT": 0.00010997, "MEAN_MOTION_DDOT": 0}, "tle": {"line1": "1 66771U 25276DK  25358.85460676  .00010997  00000+0  53605-3 0  9991", "line2": "2 66771  97.4438  70.4579 0003099 110.8440 249.3127 15.18495922  3967"}}, "geometry": {"type": "Point", "coordinates": [-117.9110793855451, -49.48052261843225]}}, {"type": "Feature", "properties": {"norad_id": 66772, "name": "TRANSPORTER-15DL", "group": "last-30-days", "lat": -63.616120029257125, "lon": -124.38905654754181, "alt_km": 518.6397898077275, "timestamp": "2025-12-25T07:00:32.763931+00:00", "meta": {"OBJECT_NAME": "TRANSPORTER-15DL", "OBJECT_ID": "2025-276DL", "EPOCH": "2025-12-24T20:26:52.654848", "MEAN_MOTION": 15.18717443, "ECCENTRICITY": 0.00029979, "INCLINATION": 97.443, "RA_OF_ASC_NODE": 70.4581, "ARG_OF_PERICENTER": 99.5119, "MEAN_ANOMALY": 260.6454, "EPHEMERIS_TYPE": 0, "CLASSIFICATION_TYPE": "U", "NORAD_CAT_ID": 66772, "ELEMENT_SET_NO": 999, "REV_AT_EPOCH": 396, "BSTAR": 0.00055131722, "MEAN_MOTION_DOT": 0.00011385, "MEAN_MOTION_DDOT": 0}, "tle": {"line1": "1 66772U 25276DL  25358.85199832  .00011385  00000+0  55132-3 0  9994", "line2": "2 66772  97.4430  70.4581 0002997  99.5119 260.6454 15.18717443  3969"}}, "geometry": {"type": "Point", "coordinates": [-124.38905654754181, -63.616120029257125]}}, {"type": "Feature", "properties": {"norad_id": 66773, "name": "TRANSPORTER-15DM", "group": "last-30-days", "lat": -56.016316476338226, "lon": -120.294910272164, "alt_km": 519.004972715933, "timestamp": "2025-12-25T07:00:32.763940+00:00", "meta": {"OBJECT_NAME": "TRANSPORTER-15DM", "OBJECT_ID": "2025-276DM", "EPOCH": "2025-12-24T22:03:46.415808", "MEAN_MOTION": 15.18546864, "ECCENTRICITY": 0.00031993, "INCLINATION": 97.4426, "RA_OF_ASC_NODE": 70.5202, "ARG_OF_PERICENTER": 97.9466, "MEAN_ANOMALY": 262.2131, "EPHEMERIS_TYPE": 0, "CLASSIFICATION_TYPE": "U", "NORAD_CAT_ID": 66773, "ELEMENT_SET_NO": 999, "REV_AT_EPOCH": 397, "BSTAR": 0.00030987388, "MEAN_MOTION_DOT": 6.334e-05, "MEAN_MOTION_DDOT": 0}, "tle": {"line1": "1 66773U 25276DM  25358.91928722  .00006334  00000+0  30987-3 0  9999", "line2": "2 66773  97.4426  70.5202 0003199  97.9466 262.2131 15.18546864  3976"}}, "geometry": {"type": "Point", "coordinates": [-120.294910272164, -56.016316476338226]}}, {"type": "Feature", "properties": {"norad_id": 66774, "name": "TRANSPORTER-15DN", "group": "last-30-days", "lat": -59.12993924920535, "lon": -121.74558503713003, "alt_km": 518.9143492896046, "timestamp": "2025-12-25T07:00:32.763953+00:00", "meta": {"OBJECT_NAME": "TRANSPORTER-15DN", "OBJECT_ID": "2025-276DN", "EPOCH": "2025-12-24T22:02:56.830848", "MEAN_MOTION": 15.18609245, "ECCENTRICITY": 0.000306, "INCLINATION": 97.4412, "RA_OF_ASC_NODE": 70.5163, "ARG_OF_PERICENTER": 96.0951, "MEAN_ANOMALY": 264.0632, "EPHEMERIS_TYPE": 0, "CLASSIFICATION_TYPE": "U", "NORAD_CAT_ID": 66774, "ELEMENT_SET_NO": 999, "REV_AT_EPOCH": 397, "BSTAR": 0.00037931977, "MEAN_MOTION_DOT": 7.784e-05, "MEAN_MOTION_DDOT": 0}, "tle": {"line1": "1 66774U 25276DN  25358.91871332  .00007784  00000+0  37932-3 0  9991", "line2": "2 66774  97.4412  70.5163 0003060  96.0951 264.0632 15.18609245  3973"}}, "geometry": {"type": "Point", "coordinates": [-121.74558503713003, -59.12993924920535]}}, {"type": "Feature", "properties": {"norad_id": 66775, "name": "PHI 1", "group": "last-30-days", "lat": -63.69058824897488, "lon": -124.44946882148176, "alt_km": 518.9913229328031, "timestamp": "2025-12-25T07:00:32.763964+00:00", "meta": {"OBJECT_NAME": "PHI 1", "OBJECT_ID": "2025-276DP", "EPOCH": "2025-12-24T22:01:42.728160", "MEAN_MOTION": 15.18673838, "ECCENTRICITY": 0.00027991, "INCLINATION": 97.4336, "RA_OF_ASC_NODE": 70.4942, "ARG_OF_PERICENTER": 65.5461, "MEAN_ANOMALY": 294.6065, "EPHEMERIS_TYPE": 0, "CLASSIFICATION_TYPE": "U", "NORAD_CAT_ID": 66775, "ELEMENT_SET_NO": 999, "REV_AT_EPOCH": 397, "BSTAR": 0.00036783925, "MEAN_MOTION_DOT": 7.561e-05, "MEAN_MOTION_DDOT": 0}, "tle": {"line1": "1 66775U 25276DP  25358.91785565  .00007561  00000+0  36784-3 0  9991", "line2": "2 66775  97.4336  70.4942 0002799  65.5461 294.6065 15.18673838  3976"}}, "geometry": {"type": "Point", "coordinates": [-124.44946882148176, -63.69058824897488]}}, {"type": "Feature", "properties": {"norad_id": 66776, "name": "TRANSPORTER-15DQ", "group": "last-30-days", "lat": -65.96098530583593, "lon": -126.15477289727723, "alt_km": 518.8755967960224, "timestamp": "2025-12-25T07:00:32.763979+00:00", "meta": {"OBJECT_NAME": "TRANSPORTER-15DQ", "OBJECT_ID": "2025-276DQ", "EPOCH": "2025-12-24T20:26:13.658208", "MEAN_MOTION": 15.18725055, "ECCENTRICITY": 0.00029054, "INCLINATION": 97.4375, "RA_OF_ASC_NODE": 70.4418, "ARG_OF_PERICENTER": 81.4246, "MEAN_ANOMALY": 278.7318, "EPHEMERIS_TYPE": 0, "CLASSIFICATION_TYPE": "U", "NORAD_CAT_ID": 66776, "ELEMENT_SET_NO": 999, "REV_AT_EPOCH": 396, "BSTAR": 0.00053949438, "MEAN_MOTION_DOT": 0.00011142, "MEAN_MOTION_DDOT": 0}, "tle": {"line1": "1 66776U 25276DQ  25358.85154697  .00011142  00000+0  53949-3 0  9993", "line2": "2 66776  97.4375  70.4418 0002905  81.4246 278.7318 15.18725055  3967"}}, "geometry": {"type": "Point", "coordinates": [-126.15477289727723, -65.96098530583593]}}]}